GSAT-10                 
1 38779U 12051B   26188.66045980 -.00000149  00000+0  00000+0 0  9999
2 38779   0.0398 242.4526 0007815 212.6874 151.2322  1.00269260 50302
INTELSAT 23 (IS-23)     
1 38867U 12057A   26188.77616332 -.00000269  00000+0  00000+0 0  9993
2 38867   0.0036  19.4094 0000240 166.3553 326.3994  1.00269005 50166
BEIDOU-2 G6             
1 38953U 12059A   26188.73196311 -.00000162  00000+0  00000+0 0  9999
2 38953   4.4702  73.3062 0009047 330.2154 229.6549  1.00268999 50114
LUCH-5B                 
1 38977U 12061A   26188.85474942 -.00000129  00000+0  00000+0 0  9993
2 38977  10.5252  49.6726 0003534 140.5083  27.1021  1.00271707 49811
YAMAL 300K              
1 38978U 12061B   26188.82289973  .00000086  00000+0  00000+0 0  9990
2 38978   0.0081 218.8385 0000340  37.5302 148.6145  1.00271780 49837
STAR ONE C3             
1 38991U 12062A   26188.55790470  .00000000  00000+0  00000+0 0  9991
2 38991   0.0230  32.5953 0002210  92.0416 286.7443  1.00271005 49969
EUTELSAT 21B            
1 38992U 12062B   26188.71965639  .00000145  00000+0  00000+0 0  9991
2 38992   0.0647 358.1383 0003213 108.5844  99.6168  1.00270619 50033
ECHOSTAR 16             
1 39008U 12065A   26188.70310153 -.00000267  00000+0  00000+0 0  9993
2 39008   0.0162  32.4755 0001966  75.0460   9.7712  1.00270544 49856
ZHONGXING-12            
1 39017U 12067A   26188.66141316 -.00000191  00000+0  00000+0 0  9999
2 39017   0.0482  93.6805 0002803   7.5505 150.0050  1.00270221 49719
EUTELSAT 70B            
1 39020U 12069A   26188.72927644 -.00000029  00000+0  00000+0 0  9998
2 39020   0.0628 344.0393 0003437 124.4533 150.2342  1.00273827 49715
YAMAL 402               
1 39022U 12070A   26188.72624309  .00000100  00000+0  00000+0 0  9993
2 39022   1.3143  83.9104 0003724  21.0113 137.1113  1.00272154 49607
SKYNET 5D               
1 39034U 12075A   26188.72580976  .00000114  00000+0  00000+0 0  9997
2 39034   0.0711 340.7531 0003714 140.3826 118.6087  1.00272613 49367
MEXSAT 3                
1 39035U 12075B   26188.69261480  .00000000  00000+0  00000+0 0  9994
2 39035   0.0198  30.8883 0001134  76.9079 312.3963  1.00267669  7255
TDRS 11                 
1 39070U 13004A   26188.63193391  .00000093  00000+0  00000+0 0  9997
2 39070   3.5507  31.5882 0004805  28.1571 279.0220  1.00276736 46890
AMAZONAS 3              
1 39078U 13006A   26188.70318818 -.00000267  00000+0  00000+0 0  9992
2 39078   0.0593 237.4990 0003268 273.7191 326.5822  1.00269114 45123
AZERSPACE 1             
1 39079U 13006B   26188.72442308  .00000148  00000+0  00000+0 0  9994
2 39079   0.0339 274.0135 0001883 229.7645  88.6930  1.00272496 49011
SBIRS GEO-2 (USA 241)   
1 39120U 13011A   26188.56275807 -.00000274  00000+0  00000+0 0  9998
2 39120   4.5326  52.5136 0002118  47.2586 338.5418  1.00272794 48740
EUTELSAT 117 WEST A     
1 39122U 13012A   26188.62091448  .00000002  00000+0  00000+0 0  9993
2 39122   0.0100   8.6126 0002760 102.6126 281.0767  1.00271677 48639
ANIK G1                 
1 39127U 13014A   26188.69408815 -.00000059  00000+0  00000+0 0  9990
2 39127   0.0193  41.6891 0001710  72.8424 313.6920  1.00271441 48457
ZHONGXING-11            
1 39157U 13020A   26188.88219514 -.00000275  00000+0  00000+0 0  9997
2 39157   0.0179  29.4784 0002510  52.4010 259.4710  1.00272466 48107
EUTELSAT 7B             
1 39163U 13022A   26188.71670824  .00000063  00000+0  00000+0 0  9997
2 39163   0.0641 356.3104 0003847  50.5643 143.8105  1.00271338 48157
WGS F5 (USA 243)        
1 39168U 13024A   26188.70483486  .00000000  00000+0  00000+0 0  9990
2 39168   0.0207  24.3559 0000280 201.6866 260.8621  1.00268064 47389
SES-6                   
1 39172U 13026A   26188.70734822 -.00000246  00000+0  00000+0 0  9993
2 39172   0.0157   2.2287 0002461  99.2774  38.3075  1.00270338 47932
IRNSS-1A                
1 39199U 13034A   26188.72632976  .00000061  00000+0  00000+0 0  9994
2 39199  35.7641  63.5758 0017576 183.3679 355.4225  1.00281056 47578
MUOS-2                  
1 39206U 13036A   26188.62013021 -.00000001  00000+0  00000+0 0  9993
2 39206   5.0351  45.5536 0052161 176.4985  98.7270  1.00271119 47397
ALPHASAT                
1 39215U 13038A   26188.72026307  .00000147  00000+0  00000+0 0  9997
2 39215   2.9989   1.1286 0002338 127.6136  81.1191  1.00274307 44226
INSAT-3D                
1 39216U 13038B   26188.74097648 -.00000325  00000+0  00000+0 0  9995
2 39216   1.9759  82.2873 0000517  60.5134 179.1806  1.00272402 47287
WGS F6 (USA 244)        
1 39222U 13041A   26188.68862811  .00000104  00000+0  00000+0 0  9995
2 39222   0.0190  36.5517 0001646 194.7592 167.0763  1.00269147 46269
ES'HAIL 1               
1 39233U 13044A   26188.72043639  .00000158  00000+0  00000+0 0  9993
2 39233   0.0467   1.4704 0002293 107.5788 101.4834  1.00272284 46835
GSAT-7                  
1 39234U 13044B   26188.72996977 -.00000061  00000+0  00000+0 0  9990
2 39234   0.1308  90.3901 0002981 179.0386 353.0077  1.00271390 45468
AMOS-4                  
1 39237U 13045A   26188.72823641  .00000022  00000+0  00000+0 0  9997
2 39237   0.0297  83.9377 0002207 355.1739 173.7506  1.00272852 47169
AEHF-3 (USA 246)        
1 39256U 13050A   26188.69079479  .00000041  00000+0  00000+0 0  9993
2 39256   5.3432  66.9980 0088286 187.6959 155.4060  1.00269191 45851
