OBJECT_NAME,OBJECT_ID,EPOCH,MEAN_MOTION,ECCENTRICITY,INCLINATION,RA_OF_ASC_NODE,ARG_OF_PERICENTER,MEAN_ANOMALY,EPHEMERIS_TYPE,CLASSIFICATION_TYPE,NORAD_CAT_ID,ELEMENT_SET_NO,REV_AT_EPOCH,BSTAR,MEAN_MOTION_DOT,MEAN_MOTION_DDOT
GSAT-10,2012-051B,2026-07-07T15:51:03.726720,1.00269260,.0007815,0.0398,242.4526,212.6874,151.2322,0,U,38779,999,5030,0,-.149E-5,0
INTELSAT 23 (IS-23),2012-057A,2026-07-07T18:37:40.510848,1.00269005,.000024,0.0036,19.4094,166.3553,326.3994,0,U,38867,999,5016,0,-.269E-5,0
BEIDOU-2 G6,2012-059A,2026-07-07T17:34:01.612704,1.00268999,.0009047,4.4702,73.3062,330.2154,229.6549,0,U,38953,999,5011,0,-.162E-5,0
LUCH-5B,2012-061A,2026-07-07T20:30:50.349888,1.00271707,.0003534,10.5252,49.6726,140.5083,27.1021,0,U,38977,999,4981,0,-.129E-5,0
YAMAL 300K,2012-061B,2026-07-07T19:44:58.536672,1.00271780,.000034,0.0081,218.8385,37.5302,148.6145,0,U,38978,999,4983,0,.86E-6,0
STAR ONE C3,2012-062A,2026-07-07T13:23:22.966080,1.00271005,.000221,0.0230,32.5953,92.0416,286.7443,0,U,38991,999,4996,0,0,0
EUTELSAT 21B,2012-062B,2026-07-07T17:16:18.312096,1.00270619,.0003213,0.0647,358.1383,108.5844,99.6168,0,U,38992,999,5003,0,.145E-5,0
ECHOSTAR 16,2012-065A,2026-07-07T16:52:27.972192,1.00270544,.0001966,0.0162,32.4755,75.0460,9.7712,0,U,39008,999,4985,0,-.267E-5,0
ZHONGXING-12,2012-067A,2026-07-07T15:52:26.097024,1.00270221,.0002803,0.0482,93.6805,7.5505,150.0050,0,U,39017,999,4971,0,-.191E-5,0
EUTELSAT 70B,2012-069A,2026-07-07T17:30:09.484416,1.00273827,.0003437,0.0628,344.0393,124.4533,150.2342,0,U,39020,999,4971,0,-.29E-6,0
YAMAL 402,2012-070A,2026-07-07T17:25:47.402976,1.00272154,.0003724,1.3143,83.9104,21.0113,137.1113,0,U,39022,999,4960,0,.1E-5,0
SKYNET 5D,2012-075A,2026-07-07T17:25:09.963264,1.00272613,.0003714,0.0711,340.7531,140.3826,118.6087,0,U,39034,999,4936,0,.114E-5,0
MEXSAT 3,2012-075B,2026-07-07T16:37:21.918720,1.00267669,.0001134,0.0198,30.8883,76.9079,312.3963,0,U,39035,999,725,0,0,0
TDRS 11,2013-004A,2026-07-07T15:09:59.089824,1.00276736,.0004805,3.5507,31.5882,28.1571,279.0220,0,U,39070,999,4689,0,.93E-6,0
AMAZONAS 3,2013-006A,2026-07-07T16:52:35.458752,1.00269114,.0003268,0.0593,237.4990,273.7191,326.5822,0,U,39078,999,4512,0,-.267E-5,0
AZERSPACE 1,2013-006B,2026-07-07T17:23:10.154112,1.00272496,.0001883,0.0339,274.0135,229.7645,88.6930,0,U,39079,999,4901,0,.148E-5,0
SBIRS GEO-2 (USA 241),2013-011A,2026-07-07T13:30:22.297248,1.00272794,.0002118,4.5326,52.5136,47.2586,338.5418,0,U,39120,999,4874,0,-.274E-5,0
EUTELSAT 117 WEST A,2013-012A,2026-07-07T14:54:07.011072,1.00271677,.000276,0.0100,8.6126,102.6126,281.0767,0,U,39122,999,4863,0,.2E-7,0
ANIK G1,2013-014A,2026-07-07T16:39:29.216160,1.00271441,.000171,0.0193,41.6891,72.8424,313.6920,0,U,39127,999,4845,0,-.59E-6,0
ZHONGXING-11,2013-020A,2026-07-07T21:10:21.660096,1.00272466,.000251,0.0179,29.4784,52.4010,259.4710,0,U,39157,999,4810,0,-.275E-5,0
EUTELSAT 7B,2013-022A,2026-07-07T17:12:03.591936,1.00271338,.0003847,0.0641,356.3104,50.5643,143.8105,0,U,39163,999,4815,0,.63E-6,0
WGS F5 (USA 243),2013-024A,2026-07-07T16:54:57.731904,1.00268064,.000028,0.0207,24.3559,201.6866,260.8621,0,U,39168,999,4738,0,0,0
SES-6,2013-026A,2026-07-07T16:58:34.886208,1.00270338,.0002461,0.0157,2.2287,99.2774,38.3075,0,U,39172,999,4793,0,-.246E-5,0
IRNSS-1A,2013-034A,2026-07-07T17:25:54.891264,1.00281056,.0017576,35.7641,63.5758,183.3679,355.4225,0,U,39199,999,4757,0,.61E-6,0
MUOS-2,2013-036A,2026-07-07T14:52:59.250144,1.00271119,.0052161,5.0351,45.5536,176.4985,98.7270,0,U,39206,999,4739,0,-.1E-7,0
ALPHASAT,2013-038A,2026-07-07T17:17:10.729248,1.00274307,.0002338,2.9989,1.1286,127.6136,81.1191,0,U,39215,999,4422,0,.147E-5,0
INSAT-3D,2013-038B,2026-07-07T17:47:00.367872,1.00272402,.0000517,1.9759,82.2873,60.5134,179.1806,0,U,39216,999,4728,0,-.325E-5,0
WGS F6 (USA 244),2013-041A,2026-07-07T16:31:37.468704,1.00269147,.0001646,0.0190,36.5517,194.7592,167.0763,0,U,39222,999,4626,0,.104E-5,0
ES'HAIL 1,2013-044A,2026-07-07T17:17:25.704096,1.00272284,.0002293,0.0467,1.4704,107.5788,101.4834,0,U,39233,999,4683,0,.158E-5,0
GSAT-7,2013-044B,2026-07-07T17:31:09.388128,1.00271390,.0002981,0.1308,90.3901,179.0386,353.0077,0,U,39234,999,4546,0,-.61E-6,0
AMOS-4,2013-045A,2026-07-07T17:28:39.625824,1.00272852,.0002207,0.0297,83.9377,355.1739,173.7506,0,U,39237,999,4716,0,.22E-6,0
AEHF-3 (USA 246),2013-050A,2026-07-07T16:34:44.669856,1.00269191,.0088286,5.3432,66.9980,187.6959,155.4060,0,U,39256,999,4585,0,.41E-6,0
